[{"OBJECT_NAME":"STARLINK-31689","OBJECT_ID":"2024-076D","EPOCH":"2026-03-09T04:24:01.682784","MEAN_MOTION":15.275769,"ECCENTRICITY":6.023e-5,"INCLINATION":42.9995,"RA_OF_ASC_NODE":8.5445,"ARG_OF_PERICENTER":278.6438,"MEAN_ANOMALY":81.4346,"EPHEMERIS_TYPE":0,"CLASSIFICATION_TYPE":"U","NORAD_CAT_ID":59567,"ELEMENT_SET_NO":999,"REV_AT_EPOCH":10646,"BSTAR":-6.5234855e-5,"MEAN_MOTION_DOT":-2.056e-5,"MEAN_MOTION_DDOT":0},{"OBJECT_NAME":"OBJECT B","OBJECT_ID":"2024-092B","EPOCH":"2026-03-09T22:35:16.756224","MEAN_MOTION":15.26654665,"ECCENTRICITY":0.00097063,"INCLINATION":97.6334,"RA_OF_ASC_NODE":195.5822,"ARG_OF_PERICENTER":166.5945,"MEAN_ANOMALY":193.5553,"EPHEMERIS_TYPE":0,"CLASSIFICATION_TYPE":"U","NORAD_CAT_ID":59774,"ELEMENT_SET_NO":999,"REV_AT_EPOCH":10038,"BSTAR":0.00052893964,"MEAN_MOTION_DOT":0.00013825,"MEAN_MOTION_DDOT":0}]
